; Simple rectangle - 40mm x 20mm, 10 layers at 1mm layer height
; For testing bottom-to-top printing on bed
G90 ; Absolute positioning
G21 ; Millimeters
G28 ; Home

; Layer 0 - z=0.5mm (first layer)
G0 Z0.5 F3000
G0 X-20 Y-10 F3000
G1 X20 Y-10 F1000 E1
G1 X20 Y10 F1000 E2
G1 X-20 Y10 F1000 E3
G1 X-20 Y-10 F1000 E4

; Layer 1 - z=1.5mm
G0 Z1.5 F3000
G1 X20 Y-10 F1000 E5
G1 X20 Y10 F1000 E6
G1 X-20 Y10 F1000 E7
G1 X-20 Y-10 F1000 E8

; Layer 2 - z=2.5mm
G0 Z2.5 F3000
G1 X20 Y-10 F1000 E9
G1 X20 Y10 F1000 E10
G1 X-20 Y10 F1000 E11
G1 X-20 Y-10 F1000 E12

; Layer 3 - z=3.5mm
G0 Z3.5 F3000
G1 X20 Y-10 F1000 E13
G1 X20 Y10 F1000 E14
G1 X-20 Y10 F1000 E15
G1 X-20 Y-10 F1000 E16

; Layer 4 - z=4.5mm
G0 Z4.5 F3000
G1 X20 Y-10 F1000 E17
G1 X20 Y10 F1000 E18
G1 X-20 Y10 F1000 E19
G1 X-20 Y-10 F1000 E20

; Layer 5 - z=5.5mm
G0 Z5.5 F3000
G1 X20 Y-10 F1000 E21
G1 X20 Y10 F1000 E22
G1 X-20 Y10 F1000 E23
G1 X-20 Y-10 F1000 E24

; Layer 6 - z=6.5mm
G0 Z6.5 F3000
G1 X20 Y-10 F1000 E25
G1 X20 Y10 F1000 E26
G1 X-20 Y10 F1000 E27
G1 X-20 Y-10 F1000 E28

; Layer 7 - z=7.5mm
G0 Z7.5 F3000
G1 X20 Y-10 F1000 E29
G1 X20 Y10 F1000 E30
G1 X-20 Y10 F1000 E31
G1 X-20 Y-10 F1000 E32

; Layer 8 - z=8.5mm
G0 Z8.5 F3000
G1 X20 Y-10 F1000 E33
G1 X20 Y10 F1000 E34
G1 X-20 Y10 F1000 E35
G1 X-20 Y-10 F1000 E36

; Layer 9 - z=9.5mm
G0 Z9.5 F3000
G1 X20 Y-10 F1000 E37
G1 X20 Y10 F1000 E38
G1 X-20 Y10 F1000 E39
G1 X-20 Y-10 F1000 E40

G0 Z15 F3000 ; Lift
G28 ; Home
