; Triangular Prism - equilateral triangle
; Side: 60.0mm, Height: 50.0mm, Layers: 50
; Vertices: V1=(30.00,-17.32), V2=(-30.00,-17.32), V3=(0.00,34.64)
; Generated from: triangle_prism.stl
G90 ; Absolute positioning
G21 ; Millimeters
G28 ; Home

; Layer 0 - z=0.5mm
G0 Z0.5 F3000
G0 X30.00 Y-17.32 F3000
G1 X-30.00 Y-17.32 F1000 E9.98
G1 X0.00 Y34.64 F1000 E19.96
G1 X30.00 Y-17.32 F1000 E29.93

; Layer 1 - z=1.5mm
G0 Z1.5 F3000
G1 X-30.00 Y-17.32 F1000 E39.91
G1 X0.00 Y34.64 F1000 E49.89
G1 X30.00 Y-17.32 F1000 E59.87

; Layer 2 - z=2.5mm
G0 Z2.5 F3000
G1 X-30.00 Y-17.32 F1000 E69.85
G1 X0.00 Y34.64 F1000 E79.82
G1 X30.00 Y-17.32 F1000 E89.80

; Layer 3 - z=3.5mm
G0 Z3.5 F3000
G1 X-30.00 Y-17.32 F1000 E99.78
G1 X0.00 Y34.64 F1000 E109.76
G1 X30.00 Y-17.32 F1000 E119.74

; Layer 4 - z=4.5mm
G0 Z4.5 F3000
G1 X-30.00 Y-17.32 F1000 E129.71
G1 X0.00 Y34.64 F1000 E139.69
G1 X30.00 Y-17.32 F1000 E149.67

; Layer 5 - z=5.5mm
G0 Z5.5 F3000
G1 X-30.00 Y-17.32 F1000 E159.65
G1 X0.00 Y34.64 F1000 E169.63
G1 X30.00 Y-17.32 F1000 E179.60

; Layer 6 - z=6.5mm
G0 Z6.5 F3000
G1 X-30.00 Y-17.32 F1000 E189.58
G1 X0.00 Y34.64 F1000 E199.56
G1 X30.00 Y-17.32 F1000 E209.54

; Layer 7 - z=7.5mm
G0 Z7.5 F3000
G1 X-30.00 Y-17.32 F1000 E219.52
G1 X0.00 Y34.64 F1000 E229.49
G1 X30.00 Y-17.32 F1000 E239.47

; Layer 8 - z=8.5mm
G0 Z8.5 F3000
G1 X-30.00 Y-17.32 F1000 E249.45
G1 X0.00 Y34.64 F1000 E259.43
G1 X30.00 Y-17.32 F1000 E269.41

; Layer 9 - z=9.5mm
G0 Z9.5 F3000
G1 X-30.00 Y-17.32 F1000 E279.39
G1 X0.00 Y34.64 F1000 E289.36
G1 X30.00 Y-17.32 F1000 E299.34

; Layer 10 - z=10.5mm
G0 Z10.5 F3000
G1 X-30.00 Y-17.32 F1000 E309.32
G1 X0.00 Y34.64 F1000 E319.30
G1 X30.00 Y-17.32 F1000 E329.28

; Layer 11 - z=11.5mm
G0 Z11.5 F3000
G1 X-30.00 Y-17.32 F1000 E339.25
G1 X0.00 Y34.64 F1000 E349.23
G1 X30.00 Y-17.32 F1000 E359.21

; Layer 12 - z=12.5mm
G0 Z12.5 F3000
G1 X-30.00 Y-17.32 F1000 E369.19
G1 X0.00 Y34.64 F1000 E379.17
G1 X30.00 Y-17.32 F1000 E389.14

; Layer 13 - z=13.5mm
G0 Z13.5 F3000
G1 X-30.00 Y-17.32 F1000 E399.12
G1 X0.00 Y34.64 F1000 E409.10
G1 X30.00 Y-17.32 F1000 E419.08

; Layer 14 - z=14.5mm
G0 Z14.5 F3000
G1 X-30.00 Y-17.32 F1000 E429.06
G1 X0.00 Y34.64 F1000 E439.03
G1 X30.00 Y-17.32 F1000 E449.01

; Layer 15 - z=15.5mm
G0 Z15.5 F3000
G1 X-30.00 Y-17.32 F1000 E458.99
G1 X0.00 Y34.64 F1000 E468.97
G1 X30.00 Y-17.32 F1000 E478.95

; Layer 16 - z=16.5mm
G0 Z16.5 F3000
G1 X-30.00 Y-17.32 F1000 E488.92
G1 X0.00 Y34.64 F1000 E498.90
G1 X30.00 Y-17.32 F1000 E508.88

; Layer 17 - z=17.5mm
G0 Z17.5 F3000
G1 X-30.00 Y-17.32 F1000 E518.86
G1 X0.00 Y34.64 F1000 E528.84
G1 X30.00 Y-17.32 F1000 E538.81

; Layer 18 - z=18.5mm
G0 Z18.5 F3000
G1 X-30.00 Y-17.32 F1000 E548.79
G1 X0.00 Y34.64 F1000 E558.77
G1 X30.00 Y-17.32 F1000 E568.75

; Layer 19 - z=19.5mm
G0 Z19.5 F3000
G1 X-30.00 Y-17.32 F1000 E578.73
G1 X0.00 Y34.64 F1000 E588.70
G1 X30.00 Y-17.32 F1000 E598.68

; Layer 20 - z=20.5mm
G0 Z20.5 F3000
G1 X-30.00 Y-17.32 F1000 E608.66
G1 X0.00 Y34.64 F1000 E618.64
G1 X30.00 Y-17.32 F1000 E628.62

; Layer 21 - z=21.5mm
G0 Z21.5 F3000
G1 X-30.00 Y-17.32 F1000 E638.59
G1 X0.00 Y34.64 F1000 E648.57
G1 X30.00 Y-17.32 F1000 E658.55

; Layer 22 - z=22.5mm
G0 Z22.5 F3000
G1 X-30.00 Y-17.32 F1000 E668.53
G1 X0.00 Y34.64 F1000 E678.51
G1 X30.00 Y-17.32 F1000 E688.48

; Layer 23 - z=23.5mm
G0 Z23.5 F3000
G1 X-30.00 Y-17.32 F1000 E698.46
G1 X0.00 Y34.64 F1000 E708.44
G1 X30.00 Y-17.32 F1000 E718.42

; Layer 24 - z=24.5mm
G0 Z24.5 F3000
G1 X-30.00 Y-17.32 F1000 E728.40
G1 X0.00 Y34.64 F1000 E738.37
G1 X30.00 Y-17.32 F1000 E748.35

; Layer 25 - z=25.5mm
G0 Z25.5 F3000
G1 X-30.00 Y-17.32 F1000 E758.33
G1 X0.00 Y34.64 F1000 E768.31
G1 X30.00 Y-17.32 F1000 E778.29

; Layer 26 - z=26.5mm
G0 Z26.5 F3000
G1 X-30.00 Y-17.32 F1000 E788.27
G1 X0.00 Y34.64 F1000 E798.24
G1 X30.00 Y-17.32 F1000 E808.22

; Layer 27 - z=27.5mm
G0 Z27.5 F3000
G1 X-30.00 Y-17.32 F1000 E818.20
G1 X0.00 Y34.64 F1000 E828.18
G1 X30.00 Y-17.32 F1000 E838.16

; Layer 28 - z=28.5mm
G0 Z28.5 F3000
G1 X-30.00 Y-17.32 F1000 E848.13
G1 X0.00 Y34.64 F1000 E858.11
G1 X30.00 Y-17.32 F1000 E868.09

; Layer 29 - z=29.5mm
G0 Z29.5 F3000
G1 X-30.00 Y-17.32 F1000 E878.07
G1 X0.00 Y34.64 F1000 E888.05
G1 X30.00 Y-17.32 F1000 E898.02

; Layer 30 - z=30.5mm
G0 Z30.5 F3000
G1 X-30.00 Y-17.32 F1000 E908.00
G1 X0.00 Y34.64 F1000 E917.98
G1 X30.00 Y-17.32 F1000 E927.96

; Layer 31 - z=31.5mm
G0 Z31.5 F3000
G1 X-30.00 Y-17.32 F1000 E937.94
G1 X0.00 Y34.64 F1000 E947.91
G1 X30.00 Y-17.32 F1000 E957.89

; Layer 32 - z=32.5mm
G0 Z32.5 F3000
G1 X-30.00 Y-17.32 F1000 E967.87
G1 X0.00 Y34.64 F1000 E977.85
G1 X30.00 Y-17.32 F1000 E987.83

; Layer 33 - z=33.5mm
G0 Z33.5 F3000
G1 X-30.00 Y-17.32 F1000 E997.80
G1 X0.00 Y34.64 F1000 E1007.78
G1 X30.00 Y-17.32 F1000 E1017.76

; Layer 34 - z=34.5mm
G0 Z34.5 F3000
G1 X-30.00 Y-17.32 F1000 E1027.74
G1 X0.00 Y34.64 F1000 E1037.72
G1 X30.00 Y-17.32 F1000 E1047.69

; Layer 35 - z=35.5mm
G0 Z35.5 F3000
G1 X-30.00 Y-17.32 F1000 E1057.67
G1 X0.00 Y34.64 F1000 E1067.65
G1 X30.00 Y-17.32 F1000 E1077.63

; Layer 36 - z=36.5mm
G0 Z36.5 F3000
G1 X-30.00 Y-17.32 F1000 E1087.61
G1 X0.00 Y34.64 F1000 E1097.58
G1 X30.00 Y-17.32 F1000 E1107.56

; Layer 37 - z=37.5mm
G0 Z37.5 F3000
G1 X-30.00 Y-17.32 F1000 E1117.54
G1 X0.00 Y34.64 F1000 E1127.52
G1 X30.00 Y-17.32 F1000 E1137.50

; Layer 38 - z=38.5mm
G0 Z38.5 F3000
G1 X-30.00 Y-17.32 F1000 E1147.47
G1 X0.00 Y34.64 F1000 E1157.45
G1 X30.00 Y-17.32 F1000 E1167.43

; Layer 39 - z=39.5mm
G0 Z39.5 F3000
G1 X-30.00 Y-17.32 F1000 E1177.41
G1 X0.00 Y34.64 F1000 E1187.39
G1 X30.00 Y-17.32 F1000 E1197.36

; Layer 40 - z=40.5mm
G0 Z40.5 F3000
G1 X-30.00 Y-17.32 F1000 E1207.34
G1 X0.00 Y34.64 F1000 E1217.32
G1 X30.00 Y-17.32 F1000 E1227.30

; Layer 41 - z=41.5mm
G0 Z41.5 F3000
G1 X-30.00 Y-17.32 F1000 E1237.28
G1 X0.00 Y34.64 F1000 E1247.26
G1 X30.00 Y-17.32 F1000 E1257.23

; Layer 42 - z=42.5mm
G0 Z42.5 F3000
G1 X-30.00 Y-17.32 F1000 E1267.21
G1 X0.00 Y34.64 F1000 E1277.19
G1 X30.00 Y-17.32 F1000 E1287.17

; Layer 43 - z=43.5mm
G0 Z43.5 F3000
G1 X-30.00 Y-17.32 F1000 E1297.15
G1 X0.00 Y34.64 F1000 E1307.12
G1 X30.00 Y-17.32 F1000 E1317.10

; Layer 44 - z=44.5mm
G0 Z44.5 F3000
G1 X-30.00 Y-17.32 F1000 E1327.08
G1 X0.00 Y34.64 F1000 E1337.06
G1 X30.00 Y-17.32 F1000 E1347.04

; Layer 45 - z=45.5mm
G0 Z45.5 F3000
G1 X-30.00 Y-17.32 F1000 E1357.01
G1 X0.00 Y34.64 F1000 E1366.99
G1 X30.00 Y-17.32 F1000 E1376.97

; Layer 46 - z=46.5mm
G0 Z46.5 F3000
G1 X-30.00 Y-17.32 F1000 E1386.95
G1 X0.00 Y34.64 F1000 E1396.93
G1 X30.00 Y-17.32 F1000 E1406.90

; Layer 47 - z=47.5mm
G0 Z47.5 F3000
G1 X-30.00 Y-17.32 F1000 E1416.88
G1 X0.00 Y34.64 F1000 E1426.86
G1 X30.00 Y-17.32 F1000 E1436.84

; Layer 48 - z=48.5mm
G0 Z48.5 F3000
G1 X-30.00 Y-17.32 F1000 E1446.82
G1 X0.00 Y34.64 F1000 E1456.79
G1 X30.00 Y-17.32 F1000 E1466.77

; Layer 49 - z=49.5mm
G0 Z49.5 F3000
G1 X-30.00 Y-17.32 F1000 E1476.75
G1 X0.00 Y34.64 F1000 E1486.73
G1 X30.00 Y-17.32 F1000 E1496.71

G0 Z55 F3000 ; Lift
G28 ; Home
